#aV2016  5 31  0  0  0.00000000     288 DD+AD WGS84 FIT  NGA
## 1899 172800.00000000   300.00000000 57539 0.0000000000000
+   31     1  2  3  5  6  7  8  9 10 11 12 13 14 15 16 17 18
+         19 20 21 22 23 24 25 26 27 28 29 30 31 32  0  0  0
+          0  0  0  0  0  0  0  0  0  0  0  0  0  0  0  0  0
+          0  0  0  0  0  0  0  0  0  0  0  0  0  0  0  0  0
+          0  0  0  0  0  0  0  0  0  0  0  0  0  0  0  0  0
++         2  2  2  2  2  2  2  2  2  2  2  2  2  2  2  2  2
++         2  2  2  2  2  2  2  2  2  2  2  2  2  2  0  0  0
++         0  0  0  0  0  0  0  0  0  0  0  0  0  0  0  0  0
++         0  0  0  0  0  0  0  0  0  0  0  0  0  0  0  0  0
++         0  0  0  0  0  0  0  0  0  0  0  0  0  0  0  0  0
%c cc cc ccc ccc cccc cccc cccc cccc ccccc ccccc ccccc ccccc
%c cc cc ccc ccc cccc cccc cccc cccc ccccc ccccc ccccc ccccc
%f  0.0000000  0.000000000  0.00000000000  0.000000000000000
%f  0.0000000  0.000000000  0.00000000000  0.000000000000000
%i    0    0    0    0      0      0      0      0         0
%i    0    0    0    0      0      0      0      0         0
/*      NGA, ST. LOUIS,MO.                                  
/*   EPHEMERIS COMPUTED FROM 2 DAYS OF DATA                 
/*   EPOCHA v2.4 SMOOTHER                                   
/*   G1762 IERS2010 SATAF SATAPC                            
*  2016  5 31  3  5  0.00000000
P  1  12135.586912  13653.781064 -19442.016096     22.084069                    
V  1 -24444.046836    770.995417 -14544.280577      0.012104                    
P  2  10372.060403 -14730.652595  19834.515375    588.584366                    
V  2  24451.484255    703.245302 -12938.877762     -0.024134                    
P  3  13564.136334  22820.335068    788.175964    -62.855540                    
V  3  -2018.020192   2283.936080 -31695.936745     -0.035743                    
P  5    641.283100 -21314.020218  15644.750251   -116.612369                    
V  5  12191.944608  16164.690638  21629.042844      0.029903                    
P  6  23748.392535  -6706.551120   9842.141406    197.908299                    
V  6  12459.352499   2483.381360 -28406.048133      0.054346                    
P  7  24768.707633   6342.746972   8069.932487    451.426578                    
V  7 -10003.252691   1797.541811  29399.257011     -0.022948                    
P  8  -3258.825915  23110.830218 -12591.702334    -37.170932                    
V  8 -10016.862724  12780.884866  25984.306608     -0.014596                    
P  9  13708.941099   6891.388635  21665.044452    139.372826                    
V  9 -13708.330203  23913.712146   1048.376019      0.073064                    
P 10 -16388.969260    832.019631 -20877.070392    -34.737372                    
V 10 -12508.272490 -23428.172337   8810.355385     -0.086190                    
P 11   6498.580331  15549.909658 -21088.288597   -648.848450                    
V 11 -24104.560931   9250.298892   -588.000496     -0.013884                    
P 12 -10455.452410 -24441.621100  -2389.769066    381.337664                    
V 12   2773.132085   1792.254054 -32061.264188      0.011402                    
P 13  11530.292147 -23038.423892  -6775.923600    -21.483201                    
V 13   6855.774211  -5362.528064  30382.665271     -0.025753                    
P 14 -19296.093558  13919.639652 -11384.048184    -16.752096                    
V 14   6457.005308 -13659.403625 -27190.829157     -0.020575                    
P 15   -855.656344 -22131.459582 -14526.969684   -313.215142                    
V 15  11005.646946 -15106.942218  22907.274406     -0.016440                    
P 16  -2300.013599  20383.970300  16542.971124    -14.008967                    
V 16 -10515.070837 -18582.877311  21675.660389      0.025152                    
P 17  18855.963952  -9785.191181 -15495.723379   -203.930273                    
V 17  -9534.195919  18035.269118 -22693.669364     -0.001592                    
P 18 -19262.639937 -11695.750199 -13708.795044    521.352519                    
V 18  -7006.792276 -17183.882363  23322.099518      0.040872                    
P 19  18988.271449 -17283.763065  -7752.582096   -525.631582                    
V 19  -3959.181764   8742.119862 -29775.768397      0.000672                    
P 20 -12815.196483 -22993.994468   3213.787491    415.510688                    
V 20   5656.554091   1321.022464  30631.450531      0.023286                    
P 21 -25850.727402  -3952.155517   6072.539950   -524.381249                    
V 21   6675.984380  -3274.334711  29797.271590     -0.011714                    
P 22   7892.525184  24036.825532  -7637.420533    330.787782                    
V 22  -8591.925125  -6597.003297 -28863.138306     -0.083968                    
P 23   7224.635295  16089.597690  19921.688422   -176.081100                    
V 23 -13906.736519  20894.262734 -12390.438663     -0.016147                    
P 24  -8513.901745 -14601.791926 -20588.107822    -17.854255                    
V 24  25988.393443  -1302.957802  -9657.967719     -0.005199                    
P 25 -17127.762217 -18428.283404   8690.537964   -181.310356                    
V 25  -3775.217332 -10655.272505 -29416.653447     -0.070462                    
P 26  -9705.976394  12783.556769  21148.836486   -381.121095                    
V 26 -14026.835464 -22936.867864   7472.179304     -0.117878                    
P 27 -11603.596981  23635.057200  -2721.859574     98.251205                    
V 27  -3971.758498   1654.928454  31858.858460      0.041258                    
P 28  15970.145538   2338.472341 -20478.432600    526.763367                    
V 28  10960.180069  25084.020862  11037.104325      0.026332                    
P 29 -10744.740664 -10509.439166  21906.868058    657.004334                    
V 29  15543.524178 -22986.041212  -3360.637749     -0.002547                    
P 30  26541.130309    647.110859  -1888.693861    129.462618                    
V 30   2152.357652   3168.314289  31375.287789      0.029122                    
P 31 -22245.624430   7789.778134  12698.305149    266.329044                    
V 31 -15722.293973  -2383.476561 -25937.095429     -0.018666                    
P 32 -18706.696447  12000.430579 -14521.675609    -15.142498                    
V 32   7412.921538 -17046.061446 -23633.302182     -0.070095                    
EOF
